STARLINK-30467          
1 57895U 23146E   24198.59301262  .00000368  00000+0  42316-4 0  9998
2 57895  43.0044 339.7167 0000946 277.9932  82.0803 15.02531211 46647
STARLINK-30469          
1 57896U 23146F   24199.11817001  .00001862  00000+0  15290-3 0  9991
2 57896  43.0015 336.7770 0001199 270.9678  89.1027 15.02537130 46679
STARLINK-30474          
1 57897U 23146G   24199.11261002  .00001284  00000+0  11006-3 0  9995
2 57897  43.0063 336.7342 0001441 272.4252  87.6426 15.02552916 46623
STARLINK-30479          
1 57898U 23146H   24199.11150512  .00000415  00000+0  45772-4 0  9992
2 57898  43.0047 336.7273 0001282 269.0374  91.0322 15.02548316 46677
STARLINK-30481          
1 57899U 23146J   24198.64284230 -.00000276  00000+0 -53326-5 0  9997
2 57899  43.0047 339.2312 0001449 258.9292 101.1387 15.02528651 46440
STARLINK-30457          
1 57900U 23146K   24198.82673258  .00001010  00000+0  89842-4 0  9998
2 57900  43.0044 338.0300 0001259 275.0770  84.9928 15.02537803 46475
STARLINK-30472          
1 57901U 23146L   24198.80896794  .00000661  00000+0  63954-4 0  9996
2 57901  43.0041 337.8925 0001189 264.8297  95.2410 15.02542863 46636
STARLINK-30462          
1 57902U 23146M   24198.63617966 -.00000581  00000+0 -27931-4 0  9998
2 57902  43.0046 339.1819 0001118 277.4064  82.6651 15.02538553 46619
STARLINK-30449          
1 57903U 23146N   24198.67269317  .00001140  00000+0  99459-4 0  9990
2 57903  43.0036 338.5916 0001183 271.6752  88.3955 15.02527093 46552
STARLINK-30466          
1 57904U 23146P   24198.63284932  .00000342  00000+0  40415-4 0  9998
2 57904  43.0033 339.1548 0001530 260.9231  99.1438 15.02534375 45597
STARLINK-30451          
1 57905U 23146Q   24198.86878531  .00000380  00000+0  43222-4 0  9999
2 57905  43.0044 337.4812 0001312 249.0310 111.0392 15.02543095 45636
STARLINK-30428          
1 57906U 23146R   24198.89541998  .00004848  00000+0  37356-3 0  9990
2 57906  43.0015 337.6851 0001185 264.2407  95.8300 15.02553739 46426
STARLINK-30482          
1 57907U 23146S   24198.42676189 -.00000592  00000+0 -28744-4 0  9997
2 57907  43.0048 340.1889 0001538 274.9928  85.0739 15.02528483 45571
STARLINK-30464          
1 57908U 23146T   24198.68599839 -.00006305  00000+0 -45172-3 0  9993
2 57908  43.0051 338.6946 0001479 282.4735  77.5941 15.02565009 46551
STARLINK-30463          
1 57909U 23146U   24198.62285864 -.00003307  00000+0 -22974-3 0  9992
2 57909  43.0032 339.0802 0001130 255.0158 105.0559 15.02550071 46607
STARLINK-30453          
1 57910U 23146V   24198.41676476 -.00001030  00000+0 -61156-4 0  9991
2 57910  43.0025 340.1145 0001769 271.7173  88.3467 15.02541453 45563
STARLINK-30478          
1 57911U 23146W   24198.73472809  .00000815  00000+0  75393-4 0  9997
2 57911  43.0045 338.1951 0001256 264.8190  95.2509 15.02534146 46679
