[{"OBJECT_NAME":"STARLINK-30467","OBJECT_ID":"2023-146E","EPOCH":"2024-07-16T14:13:56.290368","MEAN_MOTION":15.02531211,"ECCENTRICITY":9.46e-5,"INCLINATION":43.0044,"RA_OF_ASC_NODE":339.7167,"ARG_OF_PERICENTER":277.9932,"MEAN_ANOMALY":82.0803,"EPHEMERIS_TYPE":0,"CLASSIFICATION_TYPE":"U","NORAD_CAT_ID":57895,"ELEMENT_SET_NO":999,"REV_AT_EPOCH":4664,"BSTAR":4.2316e-5,"MEAN_MOTION_DOT":3.68e-6,"MEAN_MOTION_DDOT":0},{"OBJECT_NAME":"STARLINK-30469","OBJECT_ID":"2023-146F","EPOCH":"2024-07-17T02:50:09.888864","MEAN_MOTION":15.0253713,"ECCENTRICITY":0.0001199,"INCLINATION":43.0015,"RA_OF_ASC_NODE":336.777,"ARG_OF_PERICENTER":270.9678,"MEAN_ANOMALY":89.1027,"EPHEMERIS_TYPE":0,"CLASSIFICATION_TYPE":"U","NORAD_CAT_ID":57896,"ELEMENT_SET_NO":999,"REV_AT_EPOCH":4667,"BSTAR":0.0001529,"MEAN_MOTION_DOT":1.862e-5,"MEAN_MOTION_DDOT":0},{"OBJECT_NAME":"STARLINK-30474","OBJECT_ID":"2023-146G","EPOCH":"2024-07-17T02:42:09.505728","MEAN_MOTION":15.02552916,"ECCENTRICITY":0.0001441,"INCLINATION":43.0063,"RA_OF_ASC_NODE":336.7342,"ARG_OF_PERICENTER":272.4252,"MEAN_ANOMALY":87.6426,"EPHEMERIS_TYPE":0,"CLASSIFICATION_TYPE":"U","NORAD_CAT_ID":57897,"ELEMENT_SET_NO":999,"REV_AT_EPOCH":4662,"BSTAR":0.00011006,"MEAN_MOTION_DOT":1.284e-5,"MEAN_MOTION_DDOT":0},{"OBJECT_NAME":"STARLINK-30479","OBJECT_ID":"2023-146H","EPOCH":"2024-07-17T02:40:34.042368","MEAN_MOTION":15.02548316,"ECCENTRICITY":0.0001282,"INCLINATION":43.0047,"RA_OF_ASC_NODE":336.7273,"ARG_OF_PERICENTER":269.0374,"MEAN_ANOMALY":91.0322,"EPHEMERIS_TYPE":0,"CLASSIFICATION_TYPE":"U","NORAD_CAT_ID":57898,"ELEMENT_SET_NO":999,"REV_AT_EPOCH":4667,"BSTAR":4.5772e-5,"MEAN_MOTION_DOT":4.15e-6,"MEAN_MOTION_DDOT":0},{"OBJECT_NAME":"STARLINK-30481","OBJECT_ID":"2023-146J","EPOCH":"2024-07-16T15:25:41.574720","MEAN_MOTION":15.02528651,"ECCENTRICITY":0.0001449,"INCLINATION":43.0047,"RA_OF_ASC_NODE":339.2312,"ARG_OF_PERICENTER":258.9292,"MEAN_ANOMALY":101.1387,"EPHEMERIS_TYPE":0,"CLASSIFICATION_TYPE":"U","NORAD_CAT_ID":57899,"ELEMENT_SET_NO":999,"REV_AT_EPOCH":4644,"BSTAR":-5.3326e-6,"MEAN_MOTION_DOT":-2.76e-6,"MEAN_MOTION_DDOT":0},{"OBJECT_NAME":"STARLINK-30457","OBJECT_ID":"2023-146K","EPOCH":"2024-07-16T19:50:29.694912","MEAN_MOTION":15.02537803,"ECCENTRICITY":0.0001259,"INCLINATION":43.0044,"RA_OF_ASC_NODE":338.03,"ARG_OF_PERICENTER":275.077,"MEAN_ANOMALY":84.9928,"EPHEMERIS_TYPE":0,"CLASSIFICATION_TYPE":"U","NORAD_CAT_ID":57900,"ELEMENT_SET_NO":999,"REV_AT_EPOCH":4647,"BSTAR":8.9842e-5,"MEAN_MOTION_DOT":1.01e-5,"MEAN_MOTION_DDOT":0},{"OBJECT_NAME":"STARLINK-30472","OBJECT_ID":"2023-146L","EPOCH":"2024-07-16T19:24:54.830016","MEAN_MOTION":15.02542863,"ECCENTRICITY":0.0001189,"INCLINATION":43.0041,"RA_OF_ASC_NODE":337.8925,"ARG_OF_PERICENTER":264.8297,"MEAN_ANOMALY":95.241,"EPHEMERIS_TYPE":0,"CLASSIFICATION_TYPE":"U","NORAD_CAT_ID":57901,"ELEMENT_SET_NO":999,"REV_AT_EPOCH":4663,"BSTAR":6.3954e-5,"MEAN_MOTION_DOT":6.61e-6,"MEAN_MOTION_DDOT":0},{"OBJECT_NAME":"STARLINK-30462","OBJECT_ID":"2023-146M","EPOCH":"2024-07-16T15:16:05.922624","MEAN_MOTION":15.02538553,"ECCENTRICITY":0.0001118,"INCLINATION":43.0046,"RA_OF_ASC_NODE":339.1819,"ARG_OF_PERICENTER":277.4064,"MEAN_ANOMALY":82.6651,"EPHEMERIS_TYPE":0,"CLASSIFICATION_TYPE":"U","NORAD_CAT_ID":57902,"ELEMENT_SET_NO":999,"REV_AT_EPOCH":4661,"BSTAR":-2.7931e-5,"MEAN_MOTION_DOT":-5.81e-6,"MEAN_MOTION_DDOT":0},{"OBJECT_NAME":"STARLINK-30449","OBJECT_ID":"2023-146N","EPOCH":"2024-07-16T16:08:40.689888","MEAN_MOTION":15.02527093,"ECCENTRICITY":0.0001183,"INCLINATION":43.0036,"RA_OF_ASC_NODE":338.5916,"ARG_OF_PERICENTER":271.6752,"MEAN_ANOMALY":88.3955,"EPHEMERIS_TYPE":0,"CLASSIFICATION_TYPE":"U","NORAD_CAT_ID":57903,"ELEMENT_SET_NO":999,"REV_AT_EPOCH":4655,"BSTAR":9.9459e-5,"MEAN_MOTION_DOT":1.14e-5,"MEAN_MOTION_DDOT":0},{"OBJECT_NAME":"STARLINK-30466","OBJECT_ID":"2023-146P","EPOCH":"2024-07-16T15:11:18.181248","MEAN_MOTION":15.02534375,"ECCENTRICITY":0.000153,"INCLINATION":43.0033,"RA_OF_ASC_NODE":339.1548,"ARG_OF_PERICENTER":260.9231,"MEAN_ANOMALY":99.1438,"EPHEMERIS_TYPE":0,"CLASSIFICATION_TYPE":"U","NORAD_CAT_ID":57904,"ELEMENT_SET_NO":999,"REV_AT_EPOCH":4559,"BSTAR":4.0415e-5,"MEAN_MOTION_DOT":3.42e-6,"MEAN_MOTION_DDOT":0},{"OBJECT_NAME":"STARLINK-30451","OBJECT_ID":"2023-146Q","EPOCH":"2024-07-16T20:51:03.050784","MEAN_MOTION":15.02543095,"ECCENTRICITY":0.0001312,"INCLINATION":43.0044,"RA_OF_ASC_NODE":337.4812,"ARG_OF_PERICENTER":249.031,"MEAN_ANOMALY":111.0392,"EPHEMERIS_TYPE":0,"CLASSIFICATION_TYPE":"U","NORAD_CAT_ID":57905,"ELEMENT_SET_NO":999,"REV_AT_EPOCH":4563,"BSTAR":4.3222e-5,"MEAN_MOTION_DOT":3.8e-6,"MEAN_MOTION_DDOT":0},{"OBJECT_NAME":"STARLINK-30428","OBJECT_ID":"2023-146R","EPOCH":"2024-07-16T21:29:24.286272","MEAN_MOTION":15.02553739,"ECCENTRICITY":0.0001185,"INCLINATION":43.0015,"RA_OF_ASC_NODE":337.6851,"ARG_OF_PERICENTER":264.2407,"MEAN_ANOMALY":95.83,"EPHEMERIS_TYPE":0,"CLASSIFICATION_TYPE":"U","NORAD_CAT_ID":57906,"ELEMENT_SET_NO":999,"REV_AT_EPOCH":4642,"BSTAR":0.00037356,"MEAN_MOTION_DOT":4.848e-5,"MEAN_MOTION_DDOT":0},{"OBJECT_NAME":"STARLINK-30482","OBJECT_ID":"2023-146S","EPOCH":"2024-07-16T10:14:32.227296","MEAN_MOTION":15.02528483,"ECCENTRICITY":0.0001538,"INCLINATION":43.0048,"RA_OF_ASC_NODE":340.1889,"ARG_OF_PERICENTER":274.9928,"MEAN_ANOMALY":85.0739,"EPHEMERIS_TYPE":0,"CLASSIFICATION_TYPE":"U","NORAD_CAT_ID":57907,"ELEMENT_SET_NO":999,"REV_AT_EPOCH":4557,"BSTAR":-2.8744e-5,"MEAN_MOTION_DOT":-5.92e-6,"MEAN_MOTION_DDOT":0},{"OBJECT_NAME":"STARLINK-30464","OBJECT_ID":"2023-146T","EPOCH":"2024-07-16T16:27:50.260896","MEAN_MOTION":15.02565009,"ECCENTRICITY":0.0001479,"INCLINATION":43.0051,"RA_OF_ASC_NODE":338.6946,"ARG_OF_PERICENTER":282.4735,"MEAN_ANOMALY":77.5941,"EPHEMERIS_TYPE":0,"CLASSIFICATION_TYPE":"U","NORAD_CAT_ID":57908,"ELEMENT_SET_NO":999,"REV_AT_EPOCH":4655,"BSTAR":-0.00045172,"MEAN_MOTION_DOT":-6.305e-5,"MEAN_MOTION_DDOT":0},{"OBJECT_NAME":"STARLINK-30463","OBJECT_ID":"2023-146U","EPOCH":"2024-07-16T14:56:54.986496","MEAN_MOTION":15.02550071,"ECCENTRICITY":0.000113,"INCLINATION":43.0032,"RA_OF_ASC_NODE":339.0802,"ARG_OF_PERICENTER":255.0158,"MEAN_ANOMALY":105.0559,"EPHEMERIS_TYPE":0,"CLASSIFICATION_TYPE":"U","NORAD_CAT_ID":57909,"ELEMENT_SET_NO":999,"REV_AT_EPOCH":4660,"BSTAR":-0.00022974,"MEAN_MOTION_DOT":-3.307e-5,"MEAN_MOTION_DDOT":0},{"OBJECT_NAME":"STARLINK-30453","OBJECT_ID":"2023-146V","EPOCH":"2024-07-16T10:00:08.475264","MEAN_MOTION":15.02541453,"ECCENTRICITY":0.0001769,"INCLINATION":43.0025,"RA_OF_ASC_NODE":340.1145,"ARG_OF_PERICENTER":271.7173,"MEAN_ANOMALY":88.3467,"EPHEMERIS_TYPE":0,"CLASSIFICATION_TYPE":"U","NORAD_CAT_ID":57910,"ELEMENT_SET_NO":999,"REV_AT_EPOCH":4556,"BSTAR":-6.1156e-5,"MEAN_MOTION_DOT":-1.03e-5,"MEAN_MOTION_DDOT":0},{"OBJECT_NAME":"STARLINK-30478","OBJECT_ID":"2023-146W","EPOCH":"2024-07-16T17:38:00.506976","MEAN_MOTION":15.02534146,"ECCENTRICITY":0.0001256,"INCLINATION":43.0045,"RA_OF_ASC_NODE":338.1951,"ARG_OF_PERICENTER":264.819,"MEAN_ANOMALY":95.2509,"EPHEMERIS_TYPE":0,"CLASSIFICATION_TYPE":"U","NORAD_CAT_ID":57911,"ELEMENT_SET_NO":999,"REV_AT_EPOCH":4667,"BSTAR":7.5393e-5,"MEAN_MOTION_DOT":8.15e-6,"MEAN_MOTION_DDOT":0}]
